SL-3 R/B                
1 19046U 88032B   26089.46918256  .00006552  00000+0  30340-3 0  9997
2 19046  97.5210  72.6533 0026519 157.7061 202.5333 15.20139059 55263
SL-16 R/B               
1 19120U 88039B   26089.27353228  .00000150  00000+0  93443-4 0  9990
2 19120  71.0170  25.0220 0023692 304.8834  55.0063 14.19619641961304
COSMOS 1953             
1 19210U 88050A   26089.50658510  .00008793  00000+0  31188-3 0  9999
2 19210  82.5079 137.3062 0012240  57.6312 302.6110 15.28848089 40966
SL-8 R/B                
1 19257U 88053B   26089.45507556  .00000416  00000+0  14335-3 0  9999
2 19257  74.0458  74.1854 0021445 250.7011 226.1141 14.38930722979589
COSMOS 1975             
1 19573U 88093A   26089.48140368  .00009627  00000+0  34657-3 0  9993
2 19573  82.5158  96.8039 0013386  97.4896 262.7865 15.28357457 22585
SL-14 R/B               
1 19574U 88093B   26089.35022764  .00000680  00000+0  75458-4 0  9994
2 19574  82.5341  22.6523 0019987 333.8799 146.5181 14.85681402  4084
SL-16 R/B               
1 19650U 88102B   26089.45965135 -.00000015  00000+0  16631-4 0  9990
2 19650  70.9970 107.7945 0015195 330.7736  29.2535 14.16153500929831
INTERCOSMOS 24          
1 20261U 89080A   26089.45490211  .00000624  00000+0  18459-3 0  9998
2 20261  82.6012  90.8776 1186901 244.5790 102.7946 12.59584653669419
SL-14 R/B               
1 20262U 89080C   26089.44058705  .00000448  00000+0  12621-3 0  9995
2 20262  82.5953 159.8709 1230896 137.3414 233.0212 12.50513764662749
DELTA 1 R/B             
1 20323U 89089B   26089.52036013  .00000441  00000+0  11748-3 0  9991
2 20323  97.0690 293.6431 0070422  57.4606 303.3369 14.50680387898750
ARIANE 40 R/B           
1 20443U 90005H   26089.45229620  .00000338  00000+0  12099-3 0  9999
2 20443  98.3040 149.4907 0011060 138.0797 222.1240 14.39884187895790
DELTA 2 R/B(1)          
1 20453U 90008B   26089.20988755  .00088151  00000+0  94945-3 0  9996
2 20453  35.6037  39.9125 0077378  91.1653 269.7950 15.58729217929337
