CCSDS_OMM_VERS = 2.0
CREATION_DATE  = 
ORIGINATOR     = 

OBJECT_NAME    = SL-3 R/B
OBJECT_ID      = 1988-032B
CENTER_NAME    = EARTH
REF_FRAME      = TEME
TIME_SYSTEM    = UTC
MEAN_ELEMENT_THEORY = SGP/SGP4

EPOCH          = 2026-03-30T11:15:37.373184
MEAN_MOTION    = 15.20139059
ECCENTRICITY   = .0026519
INCLINATION    = 97.5210
RA_OF_ASC_NODE = 72.6533
ARG_OF_PERICENTER = 157.7061
MEAN_ANOMALY   = 202.5333

EPHEMERIS_TYPE = 0
CLASSIFICATION_TYPE = U
NORAD_CAT_ID   = 19046
ELEMENT_SET_NO = 999
REV_AT_EPOCH   = 5526
BSTAR          = .3034E-3
MEAN_MOTION_DOT = .6552E-4
MEAN_MOTION_DDOT = 0

CCSDS_OMM_VERS = 2.0
CREATION_DATE  = 
ORIGINATOR     = 

OBJECT_NAME    = SL-16 R/B
OBJECT_ID      = 1988-039B
CENTER_NAME    = EARTH
REF_FRAME      = TEME
TIME_SYSTEM    = UTC
MEAN_ELEMENT_THEORY = SGP/SGP4

EPOCH          = 2026-03-30T06:33:53.188992
MEAN_MOTION    = 14.19619641
ECCENTRICITY   = .0023692
INCLINATION    = 71.0170
RA_OF_ASC_NODE = 25.0220
ARG_OF_PERICENTER = 304.8834
MEAN_ANOMALY   = 55.0063

EPHEMERIS_TYPE = 0
CLASSIFICATION_TYPE = U
NORAD_CAT_ID   = 19120
ELEMENT_SET_NO = 999
REV_AT_EPOCH   = 96130
BSTAR          = .93443E-4
MEAN_MOTION_DOT = .15E-5
MEAN_MOTION_DDOT = 0

CCSDS_OMM_VERS = 2.0
CREATION_DATE  = 
ORIGINATOR     = 

OBJECT_NAME    = COSMOS 1953
OBJECT_ID      = 1988-050A
CENTER_NAME    = EARTH
REF_FRAME      = TEME
TIME_SYSTEM    = UTC
MEAN_ELEMENT_THEORY = SGP/SGP4

EPOCH          = 2026-03-30T12:09:28.952640
MEAN_MOTION    = 15.28848089
ECCENTRICITY   = .001224
INCLINATION    = 82.5079
RA_OF_ASC_NODE = 137.3062
ARG_OF_PERICENTER = 57.6312
MEAN_ANOMALY   = 302.6110

EPHEMERIS_TYPE = 0
CLASSIFICATION_TYPE = U
NORAD_CAT_ID   = 19210
ELEMENT_SET_NO = 999
REV_AT_EPOCH   = 4096
BSTAR          = .31188E-3
MEAN_MOTION_DOT = .8793E-4
MEAN_MOTION_DDOT = 0

CCSDS_OMM_VERS = 2.0
CREATION_DATE  = 
ORIGINATOR     = 

OBJECT_NAME    = SL-8 R/B
OBJECT_ID      = 1988-053B
CENTER_NAME    = EARTH
REF_FRAME      = TEME
TIME_SYSTEM    = UTC
MEAN_ELEMENT_THEORY = SGP/SGP4

EPOCH          = 2026-03-30T10:55:18.528384
MEAN_MOTION    = 14.38930722
ECCENTRICITY   = .0021445
INCLINATION    = 74.0458
RA_OF_ASC_NODE = 74.1854
ARG_OF_PERICENTER = 250.7011
MEAN_ANOMALY   = 226.1141

EPHEMERIS_TYPE = 0
CLASSIFICATION_TYPE = U
NORAD_CAT_ID   = 19257
ELEMENT_SET_NO = 999
REV_AT_EPOCH   = 97958
BSTAR          = .14335E-3
MEAN_MOTION_DOT = .416E-5
MEAN_MOTION_DDOT = 0

CCSDS_OMM_VERS = 2.0
CREATION_DATE  = 
ORIGINATOR     = 

OBJECT_NAME    = COSMOS 1975
OBJECT_ID      = 1988-093A
CENTER_NAME    = EARTH
REF_FRAME      = TEME
TIME_SYSTEM    = UTC
MEAN_ELEMENT_THEORY = SGP/SGP4

EPOCH          = 2026-03-30T11:33:13.277952
MEAN_MOTION    = 15.28357457
ECCENTRICITY   = .0013386
INCLINATION    = 82.5158
RA_OF_ASC_NODE = 96.8039
ARG_OF_PERICENTER = 97.4896
MEAN_ANOMALY   = 262.7865

EPHEMERIS_TYPE = 0
CLASSIFICATION_TYPE = U
NORAD_CAT_ID   = 19573
ELEMENT_SET_NO = 999
REV_AT_EPOCH   = 2258
BSTAR          = .34657E-3
MEAN_MOTION_DOT = .9627E-4
MEAN_MOTION_DDOT = 0

CCSDS_OMM_VERS = 2.0
CREATION_DATE  = 
ORIGINATOR     = 

OBJECT_NAME    = SL-14 R/B
OBJECT_ID      = 1988-093B
CENTER_NAME    = EARTH
REF_FRAME      = TEME
TIME_SYSTEM    = UTC
MEAN_ELEMENT_THEORY = SGP/SGP4

EPOCH          = 2026-03-30T08:24:19.668096
MEAN_MOTION    = 14.85681402
ECCENTRICITY   = .0019987
INCLINATION    = 82.5341
RA_OF_ASC_NODE = 22.6523
ARG_OF_PERICENTER = 333.8799
MEAN_ANOMALY   = 146.5181

EPHEMERIS_TYPE = 0
CLASSIFICATION_TYPE = U
NORAD_CAT_ID   = 19574
ELEMENT_SET_NO = 999
REV_AT_EPOCH   = 408
BSTAR          = .75458E-4
MEAN_MOTION_DOT = .68E-5
MEAN_MOTION_DDOT = 0

CCSDS_OMM_VERS = 2.0
CREATION_DATE  = 
ORIGINATOR     = 

OBJECT_NAME    = SL-16 R/B
OBJECT_ID      = 1988-102B
CENTER_NAME    = EARTH
REF_FRAME      = TEME
TIME_SYSTEM    = UTC
MEAN_ELEMENT_THEORY = SGP/SGP4

EPOCH          = 2026-03-30T11:01:53.876640
MEAN_MOTION    = 14.16153500
ECCENTRICITY   = .0015195
INCLINATION    = 70.9970
RA_OF_ASC_NODE = 107.7945
ARG_OF_PERICENTER = 330.7736
MEAN_ANOMALY   = 29.2535

EPHEMERIS_TYPE = 0
CLASSIFICATION_TYPE = U
NORAD_CAT_ID   = 19650
ELEMENT_SET_NO = 999
REV_AT_EPOCH   = 92983
BSTAR          = .16631E-4
MEAN_MOTION_DOT = -.15E-6
MEAN_MOTION_DDOT = 0

CCSDS_OMM_VERS = 2.0
CREATION_DATE  = 
ORIGINATOR     = 

OBJECT_NAME    = INTERCOSMOS 24
OBJECT_ID      = 1989-080A
CENTER_NAME    = EARTH
REF_FRAME      = TEME
TIME_SYSTEM    = UTC
MEAN_ELEMENT_THEORY = SGP/SGP4

EPOCH          = 2026-03-30T10:55:03.542304
MEAN_MOTION    = 12.59584653
ECCENTRICITY   = .1186901
INCLINATION    = 82.6012
RA_OF_ASC_NODE = 90.8776
ARG_OF_PERICENTER = 244.5790
MEAN_ANOMALY   = 102.7946

EPHEMERIS_TYPE = 0
CLASSIFICATION_TYPE = U
NORAD_CAT_ID   = 20261
ELEMENT_SET_NO = 999
REV_AT_EPOCH   = 66941
BSTAR          = .18459E-3
MEAN_MOTION_DOT = .624E-5
MEAN_MOTION_DDOT = 0

CCSDS_OMM_VERS = 2.0
CREATION_DATE  = 
ORIGINATOR     = 

OBJECT_NAME    = SL-14 R/B
OBJECT_ID      = 1989-080C
CENTER_NAME    = EARTH
REF_FRAME      = TEME
TIME_SYSTEM    = UTC
MEAN_ELEMENT_THEORY = SGP/SGP4

EPOCH          = 2026-03-30T10:34:26.721120
MEAN_MOTION    = 12.50513764
ECCENTRICITY   = .1230896
INCLINATION    = 82.5953
RA_OF_ASC_NODE = 159.8709
ARG_OF_PERICENTER = 137.3414
MEAN_ANOMALY   = 233.0212

EPHEMERIS_TYPE = 0
CLASSIFICATION_TYPE = U
NORAD_CAT_ID   = 20262
ELEMENT_SET_NO = 999
REV_AT_EPOCH   = 66274
BSTAR          = .12621E-3
MEAN_MOTION_DOT = .448E-5
MEAN_MOTION_DDOT = 0

CCSDS_OMM_VERS = 2.0
CREATION_DATE  = 
ORIGINATOR     = 

OBJECT_NAME    = DELTA 1 R/B
OBJECT_ID      = 1989-089B
CENTER_NAME    = EARTH
REF_FRAME      = TEME
TIME_SYSTEM    = UTC
MEAN_ELEMENT_THEORY = SGP/SGP4

EPOCH          = 2026-03-30T12:29:19.115232
MEAN_MOTION    = 14.50680387
ECCENTRICITY   = .0070422
INCLINATION    = 97.0690
RA_OF_ASC_NODE = 293.6431
ARG_OF_PERICENTER = 57.4606
MEAN_ANOMALY   = 303.3369

EPHEMERIS_TYPE = 0
CLASSIFICATION_TYPE = U
NORAD_CAT_ID   = 20323
ELEMENT_SET_NO = 999
REV_AT_EPOCH   = 89875
BSTAR          = .11748E-3
MEAN_MOTION_DOT = .441E-5
MEAN_MOTION_DDOT = 0

CCSDS_OMM_VERS = 2.0
CREATION_DATE  = 
ORIGINATOR     = 

OBJECT_NAME    = ARIANE 40 R/B
OBJECT_ID      = 1990-005H
CENTER_NAME    = EARTH
REF_FRAME      = TEME
TIME_SYSTEM    = UTC
MEAN_ELEMENT_THEORY = SGP/SGP4

EPOCH          = 2026-03-30T10:51:18.391680
MEAN_MOTION    = 14.39884187
ECCENTRICITY   = .001106
INCLINATION    = 98.3040
RA_OF_ASC_NODE = 149.4907
ARG_OF_PERICENTER = 138.0797
MEAN_ANOMALY   = 222.1240

EPHEMERIS_TYPE = 0
CLASSIFICATION_TYPE = U
NORAD_CAT_ID   = 20443
ELEMENT_SET_NO = 999
REV_AT_EPOCH   = 89579
BSTAR          = .12099E-3
MEAN_MOTION_DOT = .338E-5
MEAN_MOTION_DDOT = 0

CCSDS_OMM_VERS = 2.0
CREATION_DATE  = 
ORIGINATOR     = 

OBJECT_NAME    = DELTA 2 R/B(1)
OBJECT_ID      = 1990-008B
CENTER_NAME    = EARTH
REF_FRAME      = TEME
TIME_SYSTEM    = UTC
MEAN_ELEMENT_THEORY = SGP/SGP4

EPOCH          = 2026-03-30T05:02:14.284320
MEAN_MOTION    = 15.58729217
ECCENTRICITY   = .0077378
INCLINATION    = 35.6037
RA_OF_ASC_NODE = 39.9125
ARG_OF_PERICENTER = 91.1653
MEAN_ANOMALY   = 269.7950

EPHEMERIS_TYPE = 0
CLASSIFICATION_TYPE = U
NORAD_CAT_ID   = 20453
ELEMENT_SET_NO = 999
REV_AT_EPOCH   = 92933
BSTAR          = .94945E-3
MEAN_MOTION_DOT = .88151E-3
MEAN_MOTION_DDOT = 0

